      2.10          N: GNSS NAV DATA                        RINEX VERSION / TYPE
fic2rin                                 08/25/2022 00:17:32 PGM / RUN BY / DATE
                                                            END OF HEADER
3  22  8 24  1 59 44.0 -.337993726134D-03 -.761701812735D-11  .000000000000D+00
     .900000000000D+01 -.106125000000D+03  .406124059554D-08  .138674228325D+01
    -.561960041523D-05  .449312967248D-02  .572390854359D-05  .515356988144D+04
     .266384000000D+06 -.614672899246D-07  .202553119281D+01 -.186264514923D-08
     .974925236567D+00  .274718750000D+03  .103807607606D+01 -.799140430264D-08
    -.148577617426D-09  .100000000000D+01  .222400000000D+04  .000000000000D+00
     .240000000000D+01  .000000000000D+00  .186264514923D-08  .900000000000D+01
     .259200000000D+06  .400000000000D+01
16 22  8 24  8  0  0.0 -.521737616509D-03 -.147792889038D-11  .000000000000D+00
     .124000000000D+03 -.406250000000D+00  .444661379074D-08  .253593672607D+01
    -.540167093277D-07  .127304084599D-01  .879913568497D-05  .515369686890D+04
     .288000000000D+06 -.875443220139D-07 -.102693984625D+01 -.257045030594D-06
     .967821263949D+00  .214250000000D+03  .732073308695D+00 -.762567478282D-08
    -.424660545959D-09  .100000000000D+01  .222400000000D+04  .000000000000D+00
     .240000000000D+01  .000000000000D+00 -.102445483208D-07  .124000000000D+03
     .280800000000D+06  .400000000000D+01
21 22  8 24  8  0  0.0  .160209834576D-03 -.341060513165D-12  .000000000000D+00
     .700000000000D+02  .724062500000D+02  .463912180947D-08  .165190103615D+01
     .350549817085D-05  .243185525760D-01  .106543302536D-05  .515371620750D+04
     .288000000000D+06  .366941094398D-06  .895692582517D+00  .838190317154D-07
     .960616714251D+00  .345781250000D+03 -.906038606888D+00 -.816676875013D-08
    -.142863093678D-09  .100000000000D+01  .222400000000D+04  .000000000000D+00
     .240000000000D+01  .000000000000D+00 -.102445483208D-07  .700000000000D+02
     .280800000000D+06  .400000000000D+01
20 22  8 24  8  0  0.0  .492222607136D-03 -.318323145621D-11  .000000000000D+00
     .650000000000D+02 -.901875000000D+02  .491841915761D-08  .473237115105D+00
    -.475905835629D-05  .475250999443D-02  .340119004250D-05  .515364244080D+04
     .288000000000D+06  .987201929092D-07  .186488795664D+01  .558793544769D-07
     .944226703815D+00  .305062500000D+03 -.310732458610D+01 -.848499629130D-08
    -.271439877989D-09  .100000000000D+01  .222400000000D+04  .000000000000D+00
     .240000000000D+01  .000000000000D+00 -.838190317154D-08  .650000000000D+02
     .280800000000D+06  .400000000000D+01
25 22  8 24  8  0  0.0  .364321749657D-03  .420641299570D-11  .000000000000D+00
     .620000000000D+02 -.687500000000D+00  .480127142080D-08 -.216718966122D+01
    -.158324837685D-06  .104859882267D-01  .747852027416D-05  .515362305260D+04
     .288000000000D+06  .180676579475D-06 -.112447410725D+01 -.298023223877D-07
     .955442975726D+00  .230593750000D+03  .100462350932D+01 -.787211361942D-08
    -.283583240952D-09  .100000000000D+01  .222400000000D+04  .000000000000D+00
     .240000000000D+01  .000000000000D+00  .558793544769D-08  .620000000000D+02
     .280800000000D+06  .400000000000D+01
23 22  8 24  8  0  0.0 -.378624536097D-04 -.113686837722D-11  .000000000000D+00
     .480000000000D+02 -.116000000000D+03  .412552898770D-08 -.137507353809D+01
    -.586919486523D-05  .253491790500D-02  .553391873837D-05  .515372803307D+04
     .288000000000D+06 -.100582838058D-06  .199681727813D+01 -.372529029846D-07
     .969789545616D+00  .278843750000D+03  .299357316428D+01 -.795783147562D-08
    -.257153568621D-09  .100000000000D+01  .222400000000D+04  .000000000000D+00
     .240000000000D+01  .000000000000D+00 -.838190317154D-08  .304000000000D+03
     .280800000000D+06  .400000000000D+01
28 22  8 24  8  0  0.0  .340572558343D-03 -.227373675443D-12  .000000000000D+00
     .670000000000D+02 -.101250000000D+02  .442947021950D-08  .205543942649D+01
    -.549480319023D-06  .164754412835D-01  .828504562378D-05  .515366275787D+04
     .288000000000D+06  .260770320892D-06 -.102352980030D+01 -.372529029846D-08
     .967013203593D+00  .221843750000D+03 -.126872095319D+01 -.760388816103D-08
    -.501449458811D-09  .100000000000D+01  .222400000000D+04  .000000000000D+00
     .240000000000D+01  .630000000000D+02 -.111758708954D-07  .670000000000D+02
     .280830000000D+06  .400000000000D+01
31 22  8 24  7 59 44.0 -.190800987184D-03 -.136424205266D-11  .000000000000D+00
     .200000000000D+01  .146250000000D+02  .490734726785D-08 -.180572959906D+01
     .394880771637D-06  .104487560457D-01  .551342964172D-05  .515355964661D+04
     .287984000000D+06  .316649675369D-07 -.214073522644D+01 -.145286321640D-06
     .954645066559D+00  .266437500000D+03  .412896557336D+00 -.802712007606D-08
     .443947063606D-09  .100000000000D+01  .222400000000D+04  .000000000000D+00
     .240000000000D+01  .000000000000D+00 -.135041773319D-07  .200000000000D+01
     .281790000000D+06  .400000000000D+01
14 22  8 24  9 29 36.0 -.107782892883D-03  .193267624127D-11  .000000000000D+00
     .197000000000D+03 -.125312500000D+02  .483448709008D-08 -.123372829945D+01
    -.732019543648D-06  .224775122479D-02  .786595046520D-05  .515365532875D+04
     .293376000000D+06 -.558793544769D-08 -.107977207499D+01 -.372529029846D-07
     .951319303708D+00  .221093750000D+03 -.305134986742D+01 -.806997900416D-08
    -.393230665350D-09  .100000000000D+01  .222400000000D+04  .000000000000D+00
     .240000000000D+01  .000000000000D+00 -.791624188423D-08  .709000000000D+03
     .286200000000D+06  .400000000000D+01
1  22  8 24  7 59 44.0  .296386890113D-03 -.682121026330D-11  .000000000000D+00
     .220000000000D+02  .481562500000D+02  .422803325741D-08 -.639772242133D+00
     .256672501564D-05  .120133402525D-01  .211037695408D-05  .515365897751D+04
     .287984000000D+06 -.596046447754D-07  .991757351086D+00  .230967998505D-06
     .988261401123D+00  .351250000000D+03  .942646205158D+00 -.829820279631D-08
    -.250010413937D-11  .100000000000D+01  .222400000000D+04  .000000000000D+00
     .240000000000D+01  .000000000000D+00  .512227416039D-08  .220000000000D+02
     .286500000000D+06  .400000000000D+01
15 22  8 24  7 59 44.0 -.347429886460D-04  .306954461848D-11  .000000000000D+00
     .120000000000D+02 -.458125000000D+02  .488913222341D-08  .630340152426D+00
    -.224821269512D-05  .144567337120D-01  .105872750282D-04  .515361049080D+04
     .287984000000D+06 -.294297933578D-06  .294117469221D+01 -.204890966415D-07
     .931264488915D+00  .164625000000D+03  .112148303811D+01 -.827284459718D-08
     .154649298907D-09  .100000000000D+01  .222400000000D+04  .000000000000D+00
     .240000000000D+01  .000000000000D+00 -.107102096081D-07  .120000000000D+02
     .287280000000D+06  .400000000000D+01
1  22  8 24  9 59 44.0  .296337530017D-03 -.682121026330D-11  .000000000000D+00
     .230000000000D+02  .478125000000D+02  .428267839075D-08  .410419923340D+00
     .261887907982D-05  .120132603915D-01  .206381082535D-05  .515365882683D+04
     .295184000000D+06 -.912696123123D-07  .991697033511D+00  .106170773506D-06
     .988261301644D+00  .352156250000D+03  .942642207003D+00 -.836249118847D-08
     .146434671020D-10  .100000000000D+01  .222400000000D+04  .000000000000D+00
     .240000000000D+01  .000000000000D+00  .512227416039D-08  .230000000000D+02
     .288000000000D+06  .400000000000D+01
15 22  8 24  9 59 44.0 -.347206369042D-04  .306954461848D-11  .000000000000D+00
     .130000000000D+02 -.619687500000D+02  .483055835500D-08  .168041258098D+01
    -.342912971973D-05  .144575319719D-01  .106263905764D-04  .515361485100D+04
     .295184000000D+06 -.212341547012D-06  .294111490129D+01 -.290572643280D-06
     .931265940130D+00  .164250000000D+03  .112163180956D+01 -.814176770873D-08
     .179293182566D-09  .100000000000D+01  .222400000000D+04  .000000000000D+00
     .240000000000D+01  .000000000000D+00 -.107102096081D-07  .130000000000D+02
     .288000000000D+06  .400000000000D+01
